CCSDS_OMM_VERS = 2.0
CREATION_DATE  = 
ORIGINATOR     = 

OBJECT_NAME    = STARLINK-36799
OBJECT_ID      = 2026-037AC
CENTER_NAME    = EARTH
REF_FRAME      = TEME
TIME_SYSTEM    = UTC
MEAN_ELEMENT_THEORY = SGP/SGP4

EPOCH          = 2026-03-05T14:00:01.999872
MEAN_MOTION    = 15.95242489
ECCENTRICITY   = .00015179
INCLINATION    = 42.9995
RA_OF_ASC_NODE = 223.7165
ARG_OF_PERICENTER = 276.4645
MEAN_ANOMALY   = 350.4138

EPHEMERIS_TYPE = 0
CLASSIFICATION_TYPE = U
NORAD_CAT_ID   = 67958
ELEMENT_SET_NO = 999
REV_AT_EPOCH   = 253
BSTAR          = -.37221411E-2
MEAN_MOTION_DOT = -.1515587E-1
MEAN_MOTION_DDOT = .66777037E-3

CCSDS_OMM_VERS = 2.0
CREATION_DATE  = 
ORIGINATOR     = 

OBJECT_NAME    = STARLINK-36834
OBJECT_ID      = 2026-037AD
CENTER_NAME    = EARTH
REF_FRAME      = TEME
TIME_SYSTEM    = UTC
MEAN_ELEMENT_THEORY = SGP/SGP4

EPOCH          = 2026-03-05T14:00:01.999872
MEAN_MOTION    = 15.95491398
ECCENTRICITY   = .00013787
INCLINATION    = 42.9996
RA_OF_ASC_NODE = 223.7018
ARG_OF_PERICENTER = 269.2854
MEAN_ANOMALY   = 3.2129

EPHEMERIS_TYPE = 0
CLASSIFICATION_TYPE = U
NORAD_CAT_ID   = 67959
ELEMENT_SET_NO = 999
REV_AT_EPOCH   = 253
BSTAR          = -.37148608E-2
MEAN_MOTION_DOT = -.1532899E-1
MEAN_MOTION_DDOT = .68358264E-3

CCSDS_OMM_VERS = 2.0
CREATION_DATE  = 
ORIGINATOR     = 

OBJECT_NAME    = STARLINK-36841
OBJECT_ID      = 2026-037AE
CENTER_NAME    = EARTH
REF_FRAME      = TEME
TIME_SYSTEM    = UTC
MEAN_ELEMENT_THEORY = SGP/SGP4

EPOCH          = 2026-03-05T14:00:01.999872
MEAN_MOTION    = 15.95378069
ECCENTRICITY   = .00012928
INCLINATION    = 42.9995
RA_OF_ASC_NODE = 223.7093
ARG_OF_PERICENTER = 270.5400
MEAN_ANOMALY   = 358.9949

EPHEMERIS_TYPE = 0
CLASSIFICATION_TYPE = U
NORAD_CAT_ID   = 67960
ELEMENT_SET_NO = 999
REV_AT_EPOCH   = 253
BSTAR          = -.37443311E-2
MEAN_MOTION_DOT = -.1535547E-1
MEAN_MOTION_DDOT = .68496821E-3

CCSDS_OMM_VERS = 2.0
CREATION_DATE  = 
ORIGINATOR     = 

OBJECT_NAME    = STARLINK-36912
OBJECT_ID      = 2026-038A
CENTER_NAME    = EARTH
REF_FRAME      = TEME
TIME_SYSTEM    = UTC
MEAN_ELEMENT_THEORY = SGP/SGP4

EPOCH          = 2026-03-05T14:00:01.999872
MEAN_MOTION    = 16.00482368
ECCENTRICITY   = .00012564
INCLINATION    = 97.2764
RA_OF_ASC_NODE = 74.5366
ARG_OF_PERICENTER = 102.8926
MEAN_ANOMALY   = 139.7936

EPHEMERIS_TYPE = 0
CLASSIFICATION_TYPE = U
NORAD_CAT_ID   = 67961
ELEMENT_SET_NO = 999
REV_AT_EPOCH   = 253
BSTAR          = -.29155578E-2
MEAN_MOTION_DOT = -.1507359E-1
MEAN_MOTION_DDOT = .70448511E-3

CCSDS_OMM_VERS = 2.0
CREATION_DATE  = 
ORIGINATOR     = 

OBJECT_NAME    = STARLINK-36881
OBJECT_ID      = 2026-038B
CENTER_NAME    = EARTH
REF_FRAME      = TEME
TIME_SYSTEM    = UTC
MEAN_ELEMENT_THEORY = SGP/SGP4

EPOCH          = 2026-03-05T14:00:01.999872
MEAN_MOTION    = 16.00556873
ECCENTRICITY   = .00012215
INCLINATION    = 97.2763
RA_OF_ASC_NODE = 74.5373
ARG_OF_PERICENTER = 110.0359
MEAN_ANOMALY   = 134.4767

EPHEMERIS_TYPE = 0
CLASSIFICATION_TYPE = U
NORAD_CAT_ID   = 67962
ELEMENT_SET_NO = 999
REV_AT_EPOCH   = 253
BSTAR          = -.28923305E-2
MEAN_MOTION_DOT = -.1501756E-1
MEAN_MOTION_DDOT = .70021869E-3

CCSDS_OMM_VERS = 2.0
CREATION_DATE  = 
ORIGINATOR     = 

OBJECT_NAME    = STARLINK-36357
OBJECT_ID      = 2026-038C
CENTER_NAME    = EARTH
REF_FRAME      = TEME
TIME_SYSTEM    = UTC
MEAN_ELEMENT_THEORY = SGP/SGP4

EPOCH          = 2026-03-05T14:00:01.999872
MEAN_MOTION    = 16.00799222
ECCENTRICITY   = .00012293
INCLINATION    = 97.2760
RA_OF_ASC_NODE = 74.5395
ARG_OF_PERICENTER = 108.1029
MEAN_ANOMALY   = 141.2230

EPHEMERIS_TYPE = 0
CLASSIFICATION_TYPE = U
NORAD_CAT_ID   = 67963
ELEMENT_SET_NO = 999
REV_AT_EPOCH   = 253
BSTAR          = -.28620886E-2
MEAN_MOTION_DOT = -.1506657E-1
MEAN_MOTION_DDOT = .70641338E-3

CCSDS_OMM_VERS = 2.0
CREATION_DATE  = 
ORIGINATOR     = 

OBJECT_NAME    = STARLINK-36349
OBJECT_ID      = 2026-038D
CENTER_NAME    = EARTH
REF_FRAME      = TEME
TIME_SYSTEM    = UTC
MEAN_ELEMENT_THEORY = SGP/SGP4

EPOCH          = 2026-03-05T14:00:01.999872
MEAN_MOTION    = 16.00685239
ECCENTRICITY   = .00012835
INCLINATION    = 97.2758
RA_OF_ASC_NODE = 74.5380
ARG_OF_PERICENTER = 109.4469
MEAN_ANOMALY   = 137.4673

EPHEMERIS_TYPE = 0
CLASSIFICATION_TYPE = U
NORAD_CAT_ID   = 67964
ELEMENT_SET_NO = 999
REV_AT_EPOCH   = 253
BSTAR          = -.28963162E-2
MEAN_MOTION_DOT = -.1514715E-1
MEAN_MOTION_DDOT = .71252296E-3

CCSDS_OMM_VERS = 2.0
CREATION_DATE  = 
ORIGINATOR     = 

OBJECT_NAME    = STARLINK-36806
OBJECT_ID      = 2026-038E
CENTER_NAME    = EARTH
REF_FRAME      = TEME
TIME_SYSTEM    = UTC
MEAN_ELEMENT_THEORY = SGP/SGP4

EPOCH          = 2026-03-05T14:00:01.999872
MEAN_MOTION    = 16.00936039
ECCENTRICITY   = .00012019
INCLINATION    = 97.2755
RA_OF_ASC_NODE = 74.5404
ARG_OF_PERICENTER = 104.8045
MEAN_ANOMALY   = 147.3100

EPHEMERIS_TYPE = 0
CLASSIFICATION_TYPE = U
NORAD_CAT_ID   = 67965
ELEMENT_SET_NO = 999
REV_AT_EPOCH   = 253
BSTAR          = -.28406606E-2
MEAN_MOTION_DOT = -.1507096E-1
MEAN_MOTION_DDOT = .70789962E-3

CCSDS_OMM_VERS = 2.0
CREATION_DATE  = 
ORIGINATOR     = 

OBJECT_NAME    = STARLINK-36820
OBJECT_ID      = 2026-038F
CENTER_NAME    = EARTH
REF_FRAME      = TEME
TIME_SYSTEM    = UTC
MEAN_ELEMENT_THEORY = SGP/SGP4

EPOCH          = 2026-03-05T14:00:01.999872
MEAN_MOTION    = 16.01043604
ECCENTRICITY   = .00011788
INCLINATION    = 97.2755
RA_OF_ASC_NODE = 74.5416
ARG_OF_PERICENTER = 109.2651
MEAN_ANOMALY   = 145.1928

EPHEMERIS_TYPE = 0
CLASSIFICATION_TYPE = U
NORAD_CAT_ID   = 67966
ELEMENT_SET_NO = 999
REV_AT_EPOCH   = 253
BSTAR          = -.27944132E-2
MEAN_MOTION_DOT = -.1491882E-1
MEAN_MOTION_DDOT = .69553637E-3

CCSDS_OMM_VERS = 2.0
CREATION_DATE  = 
ORIGINATOR     = 

OBJECT_NAME    = STARLINK-36819
OBJECT_ID      = 2026-038G
CENTER_NAME    = EARTH
REF_FRAME      = TEME
TIME_SYSTEM    = UTC
MEAN_ELEMENT_THEORY = SGP/SGP4

EPOCH          = 2026-03-05T14:00:01.999872
MEAN_MOTION    = 16.01170979
ECCENTRICITY   = .00012452
INCLINATION    = 97.2754
RA_OF_ASC_NODE = 74.5426
ARG_OF_PERICENTER = 102.3354
MEAN_ANOMALY   = 154.6383

EPHEMERIS_TYPE = 0
CLASSIFICATION_TYPE = U
NORAD_CAT_ID   = 67967
ELEMENT_SET_NO = 999
REV_AT_EPOCH   = 253
BSTAR          = -.27844754E-2
MEAN_MOTION_DOT = -.1497413E-1
MEAN_MOTION_DDOT = .70135549E-3

CCSDS_OMM_VERS = 2.0
CREATION_DATE  = 
ORIGINATOR     = 

OBJECT_NAME    = STARLINK-36812
OBJECT_ID      = 2026-038H
CENTER_NAME    = EARTH
REF_FRAME      = TEME
TIME_SYSTEM    = UTC
MEAN_ELEMENT_THEORY = SGP/SGP4

EPOCH          = 2026-03-05T14:00:01.999872
MEAN_MOTION    = 16.01273422
ECCENTRICITY   = .0001185
INCLINATION    = 97.2750
RA_OF_ASC_NODE = 74.5432
ARG_OF_PERICENTER = 100.8873
MEAN_ANOMALY   = 158.2576

EPHEMERIS_TYPE = 0
CLASSIFICATION_TYPE = U
NORAD_CAT_ID   = 67968
ELEMENT_SET_NO = 999
REV_AT_EPOCH   = 253
BSTAR          = -.2761859E-2
MEAN_MOTION_DOT = -.1494032E-1
MEAN_MOTION_DDOT = .69923741E-3

CCSDS_OMM_VERS = 2.0
CREATION_DATE  = 
ORIGINATOR     = 

OBJECT_NAME    = STARLINK-36709
OBJECT_ID      = 2026-038J
CENTER_NAME    = EARTH
REF_FRAME      = TEME
TIME_SYSTEM    = UTC
MEAN_ELEMENT_THEORY = SGP/SGP4

EPOCH          = 2026-03-05T14:00:01.999872
MEAN_MOTION    = 16.01523119
ECCENTRICITY   = .00011467
INCLINATION    = 97.2750
RA_OF_ASC_NODE = 74.5454
ARG_OF_PERICENTER = 98.3078
MEAN_ANOMALY   = 165.9844

EPHEMERIS_TYPE = 0
CLASSIFICATION_TYPE = U
NORAD_CAT_ID   = 67969
ELEMENT_SET_NO = 999
REV_AT_EPOCH   = 253
BSTAR          = -.27017285E-2
MEAN_MOTION_DOT = -.1482764E-1
MEAN_MOTION_DDOT = .69145526E-3

